{
  "type": "FeatureCollection",
  "features": [
    {
      "type": "Feature",
      "properties": {
        "norad_id": 37781,
        "name": "HAIYANG-2A",
        "group": "resource",
        "lat": 45.38538576164415,
        "lon": -16.37740522734711,
        "alt_km": 962.9734918210142,
        "timestamp": "2025-12-18T08:58:43.048447+00:00",
        "meta_object_name": "HAIYANG-2A",
        "meta_object_id": "2011-043A",
        "meta_epoch": "2025-12-18T00:02:52.376640",
        "meta_mean_motion": 13.7883515,
        "meta_eccentricity": 0.00016256,
        "meta_inclination": 99.3376,
        "meta_ra_of_asc_node": 352.8557,
        "meta_arg_of_pericenter": 76.2794,
        "meta_mean_anomaly": 283.8538,
        "meta_ephemeris_type": 0,
        "meta_classification_type": "U",
        "meta_norad_cat_id": 37781,
        "meta_element_set_no": 999,
        "meta_rev_at_epoch": 72171,
        "meta_bstar": -9.4686235e-05,
        "meta_mean_motion_dot": -1.4e-06,
        "meta_mean_motion_ddot": 0,
        "tle_line1": "1 37781U 11043A   25352.00199510 -.00000140  00000+0 -94686-4 0  9990",
        "tle_line2": "2 37781  99.3376 352.8557 0001625  76.2794 283.8538 13.78835150721715"
      },
      "geometry": {
        "type": "Point",
        "coordinates": [
          -16.37740522734711,
          45.38538576164415
        ]
      }
    },
    {
      "type": "Feature",
      "properties": {
        "norad_id": 37791,
        "name": "RASAT",
        "group": "resource",
        "lat": 12.757220554089177,
        "lon": -96.61223009212203,
        "alt_km": 676.3307722026002,
        "timestamp": "2025-12-18T08:58:43.048458+00:00",
        "meta_object_name": "RASAT",
        "meta_object_id": "2011-044D",
        "meta_epoch": "2025-12-17T22:54:27.597312",
        "meta_mean_motion": 14.67915791,
        "meta_eccentricity": 0.00216781,
        "meta_inclination": 98.0648,
        "meta_ra_of_asc_node": 81.1348,
        "meta_arg_of_pericenter": 49.2215,
        "meta_mean_anomaly": 61.3915,
        "meta_ephemeris_type": 0,
        "meta_classification_type": "U",
        "meta_norad_cat_id": 37791,
        "meta_element_set_no": 999,
        "meta_rev_at_epoch": 76659,
        "meta_bstar": 4.420243e-05,
        "meta_mean_motion_dot": 2.05e-06,
        "meta_mean_motion_ddot": 0,
        "tle_line1": "1 37791U 11044D   25351.95448608  .00000205  00000+0  44202-4 0  9999",
        "tle_line2": "2 37791  98.0648  81.1348 0021678  49.2215  61.3915 14.67915791766594"
      },
      "geometry": {
        "type": "Point",
        "coordinates": [
          -96.61223009212203,
          12.757220554089177
        ]
      }
    },
    {
      "type": "Feature",
      "properties": {
        "norad_id": 37841,
        "name": "SRMSAT",
        "group": "resource",
        "lat": -10.70956736167072,
        "lon": 42.47191035598755,
        "alt_km": 847.4472981987574,
        "timestamp": "2025-12-18T08:58:43.048468+00:00",
        "meta_object_name": "SRMSAT",
        "meta_object_id": "2011-058D",
        "meta_epoch": "2025-12-17T14:36:14.562432",
        "meta_mean_motion": 14.11513105,
        "meta_eccentricity": 0.0011885,
        "meta_inclination": 19.972,
        "meta_ra_of_asc_node": 78.4836,
        "meta_arg_of_pericenter": 7.0463,
        "meta_mean_anomaly": 21.298,
        "meta_ephemeris_type": 0,
        "meta_classification_type": "U",
        "meta_norad_cat_id": 37841,
        "meta_element_set_no": 999,
        "meta_rev_at_epoch": 73213,
        "meta_bstar": 7.3050656e-05,
        "meta_mean_motion_dot": 3.99e-06,
        "meta_mean_motion_ddot": 0,
        "tle_line1": "1 37841U 11058D   25351.60850188  .00000399  00000+0  73051-4 0  9990",
        "tle_line2": "2 37841  19.9720  78.4836 0011885   7.0463  21.2980 14.11513105732132"
      },
      "geometry": {
        "type": "Point",
        "coordinates": [
          42.47191035598755,
          -10.70956736167072
        ]
      }
    },
    {
      "type": "Feature",
      "properties": {
        "norad_id": 38012,
        "name": "PLEIADES 1A",
        "group": "resource",
        "lat": 46.691260565326864,
        "lon": -106.16454551622964,
        "alt_km": 693.3106353806334,
        "timestamp": "2025-12-18T08:58:43.048478+00:00",
        "meta_object_name": "PLEIADES 1A",
        "meta_object_id": "2011-076F",
        "meta_epoch": "2025-12-17T23:17:09.187008",
        "meta_mean_motion": 14.58566222,
        "meta_eccentricity": 0.00011699,
        "meta_inclination": 98.1822,
        "meta_ra_of_asc_node": 64.6582,
        "meta_arg_of_pericenter": 72.0218,
        "meta_mean_anomaly": 101.2019,
        "meta_ephemeris_type": 0,
        "meta_classification_type": "U",
        "meta_norad_cat_id": 38012,
        "meta_element_set_no": 999,
        "meta_rev_at_epoch": 74557,
        "meta_bstar": 7.7395529e-05,
        "meta_mean_motion_dot": 3.14e-06,
        "meta_mean_motion_ddot": 0,
        "tle_line1": "1 38012U 11076F   25351.97024522  .00000314  00000+0  77396-4 0  9999",
        "tle_line2": "2 38012  98.1822  64.6582 0001169  72.0218 101.2019 14.58566222745577"
      },
      "geometry": {
        "type": "Point",
        "coordinates": [
          -106.16454551622964,
          46.691260565326864
        ]
      }
    },
    {
      "type": "Feature",
      "properties": {
        "norad_id": 38038,
        "name": "ZIYUAN 1-02C (ZY 1-02C)",
        "group": "resource",
        "lat": -15.731295065540369,
        "lon": 60.679138718416446,
        "alt_km": 773.7846048153415,
        "timestamp": "2025-12-18T08:58:43.048488+00:00",
        "meta_object_name": "ZIYUAN 1-02C (ZY 1-02C)",
        "meta_object_id": "2011-079A",
        "meta_epoch": "2025-12-17T23:36:27.103392",
        "meta_mean_motion": 14.38017457,
        "meta_eccentricity": 0.00073648,
        "meta_inclination": 98.4333,
        "meta_ra_of_asc_node": 57.9009,
        "meta_arg_of_pericenter": 124.5386,
        "meta_mean_anomaly": 359.5234,
        "meta_ephemeris_type": 0,
        "meta_classification_type": "U",
        "meta_norad_cat_id": 38038,
        "meta_element_set_no": 999,
        "meta_rev_at_epoch": 73316,
        "meta_bstar": 0.00011361241,
        "meta_mean_motion_dot": 3.01e-06,
        "meta_mean_motion_ddot": 0,
        "tle_line1": "1 38038U 11079A   25351.98364703  .00000301  00000+0  11361-3 0  9994",
        "tle_line2": "2 38038  98.4333  57.9009 0007364 124.5386 359.5234 14.38017457733164"
      },
      "geometry": {
        "type": "Point",
        "coordinates": [
          60.679138718416446,
          -15.731295065540369
        ]
      }
    },
    {
      "type": "Feature",
      "properties": {
        "norad_id": 38338,
        "name": "ARIRANG-3 (KOMPSAT-3)",
        "group": "resource",
        "lat": 80.76460006834587,
        "lon": -168.65025971094937,
        "alt_km": 682.6804711983332,
        "timestamp": "2025-12-18T08:58:43.048513+00:00",
        "meta_object_name": "ARIRANG-3 (KOMPSAT-3)",
        "meta_object_id": "2012-025B",
        "meta_epoch": "2025-12-17T22:41:35.092320",
        "meta_mean_motion": 14.61719554,
        "meta_eccentricity": 0.00050305,
        "meta_inclination": 98.3329,
        "meta_ra_of_asc_node": 306.5743,
        "meta_arg_of_pericenter": 320.8837,
        "meta_mean_anomaly": 39.2,
        "meta_ephemeris_type": 0,
        "meta_classification_type": "U",
        "meta_norad_cat_id": 38338,
        "meta_element_set_no": 999,
        "meta_rev_at_epoch": 72486,
        "meta_bstar": 9.9431922e-05,
        "meta_mean_motion_dot": 4.47e-06,
        "meta_mean_motion_ddot": 0,
        "tle_line1": "1 38338U 12025B   25351.94554505  .00000447  00000+0  99432-4 0  9993",
        "tle_line2": "2 38338  98.3329 306.5743 0005030 320.8837  39.2000 14.61719554724862"
      },
      "geometry": {
        "type": "Point",
        "coordinates": [
          -168.65025971094937,
          80.76460006834587
        ]
      }
    },
    {
      "type": "Feature",
      "properties": {
        "norad_id": 38709,
        "name": "EXACTVIEW-1 (ADS-1B)",
        "group": "resource",
        "lat": 64.96214223194522,
        "lon": 81.13339958731653,
        "alt_km": 802.2654494603157,
        "timestamp": "2025-12-18T08:58:43.048524+00:00",
        "meta_object_name": "EXACTVIEW-1 (ADS-1B)",
        "meta_object_id": "2012-039C",
        "meta_epoch": "2025-12-17T20:52:15.820320",
        "meta_mean_motion": 14.24910031,
        "meta_eccentricity": 0.00104088,
        "meta_inclination": 98.9637,
        "meta_ra_of_asc_node": 100.3673,
        "meta_arg_of_pericenter": 339.1318,
        "meta_mean_anomaly": 20.9434,
        "meta_ephemeris_type": 0,
        "meta_classification_type": "U",
        "meta_norad_cat_id": 38709,
        "meta_element_set_no": 999,
        "meta_rev_at_epoch": 69688,
        "meta_bstar": 6.5888705e-05,
        "meta_mean_motion_dot": 1.08e-06,
        "meta_mean_motion_ddot": 0,
        "tle_line1": "1 38709U 12039C   25351.86962755  .00000108  00000+0  65889-4 0  9994",
        "tle_line2": "2 38709  98.9637 100.3673 0010408 339.1318  20.9434 14.24910031696886"
      },
      "geometry": {
        "type": "Point",
        "coordinates": [
          81.13339958731653,
          64.96214223194522
        ]
      }
    }
  ]
}